TEVEL2-7                
1 63238U 25052AE  26068.66113295  .00019244  00000+0  69668-3 0  9998
2 63238  97.4054 324.3041 0008105 124.6830 235.5175 15.28414096 54803
STARLINK-35356          
1 65836U 25221P   26068.34885525  .00013659  00000+0  47242-3 0  9997
2 65836  53.1576  89.7528 0001247  83.8441 276.2702 15.30201389 24686
